{"type":"FeatureCollection", "features": [
{"type":"Feature","geometry":{"type":"MultiPolygon","coordinates":[[[[102.073,6.258],[102.06,6.095],[101.8,5.74],[101.535,5.906],[101.105,5.638],[101.082,6.246],[100.806,6.415],[100.387,6.522],[100.127,6.442],[100.349,6.013],[100.344,5.669],[100.43,5.303],[100.365,5.084],[100.577,4.854],[100.633,4.533],[100.565,4.319],[100.776,4.086],[100.721,3.868],[101.041,3.622],[101.298,3.275],[101.283,2.911],[101.542,2.661],[101.783,2.576],[102.188,2.216],[102.489,2.093],[102.804,1.86],[103.367,1.538],[103.504,1.29],[103.84,1.477],[104.219,1.346],[104.295,1.447],[103.949,2.34],[103.435,2.962],[103.482,3.512],[103.339,3.758],[103.494,4.337],[103.449,4.795],[103.12,5.381],[102.5,5.897],[102.316,6.19],[102.073,6.258]]],[[[115.146,4.909],[115.03,4.821],[114.982,4.889],[114.752,4.739],[114.836,4.357],[114.767,4.132],[114.587,4.021],[114.246,4.481],[113.999,4.601],[113.947,4.274],[113.737,4.001],[113.434,3.753],[112.974,3.144],[112.014,2.886],[111.67,2.843],[111.44,2.68],[111.365,2.341],[110.968,1.503],[110.366,1.716],[109.928,1.692],[109.677,1.573],[110.257,1.039],[110.554,0.851],[111.198,1.075],[111.823,1.008],[112.1,1.155],[112.18,1.449],[112.47,1.568],[113.023,1.537],[113.089,1.431],[113.65,1.233],[113.91,1.442],[114.501,1.436],[114.832,1.903],[114.779,2.247],[115.127,2.479],[115.067,2.828],[115.242,3.042],[115.464,3.031],[115.647,4.169],[115.879,4.352],[117.165,4.333],[117.567,4.16],[117.671,4.426],[117.892,4.257],[118.543,4.36],[118.6,4.519],[118.334,4.652],[118.136,4.882],[118.357,5.039],[118.681,4.944],[119.156,5.106],[119.205,5.443],[118.971,5.428],[118.411,5.796],[117.884,5.955],[117.655,5.959],[117.606,6.182],[117.744,6.39],[117.51,6.602],[117.309,6.629],[117.144,7.004],[116.974,6.708],[116.746,7.01],[116.503,6.495],[116.201,6.218],[116.051,5.842],[115.849,5.56],[115.55,5.54],[115.36,5.32],[115.557,5.067],[115.358,4.903],[115.146,4.909]]]]},"properties":{"name":"Malaysia"}},
{"type":"Feature","geometry":{"type":"MultiPolygon","coordinates":[[[[77.8,35.495],[77.042,35.107],[76.921,34.921],[76.553,34.726],[76.023,34.677],[75.777,34.504],[75.348,34.557],[74.286,34.769],[73.962,34.668],[73.775,34.371],[73.998,34.197],[74.142,33.549],[74.002,33.178],[74.65,32.723],[74.725,32.461],[75.024,32.466],[75.295,32.149],[74.829,32.025],[74.489,31.711],[74.612,31.44],[74.33,30.9],[73.852,30.373],[73.944,30.188],[73.37,29.927],[73.233,29.537],[72.902,29.023],[72.382,28.784],[71.861,27.95],[71.311,27.862],[70.832,27.701],[70.633,27.932],[70.342,28.011],[70.017,27.601],[69.576,27.188],[69.465,26.808],[69.816,26.58],[70.158,26.53],[70.065,25.98],[70.265,25.697],[70.657,25.634],[70.647,25.431],[70.86,25.139],[71.064,24.683],[70.755,24.231],[70.563,24.424],[70.11,24.305],[69.972,24.165],[69.563,24.277],[68.726,24.289],[68.724,23.965],[68.252,23.905],[68.164,23.758],[68.552,23.26],[68.866,23.02],[69.239,22.842],[69.716,22.747],[69.833,22.858],[70.399,22.946],[70.178,22.562],[69.616,22.356],[68.974,22.405],[68.994,22.204],[69.815,21.434],[70.054,21.153],[70.542,20.808],[70.982,20.71],[71.462,20.885],[72.105,21.205],[72.296,21.654],[72.166,21.794],[72.317,22.185],[72.553,22.282],[72.532,21.714],[72.606,21.267],[72.945,20.77],[72.748,20.28],[72.65,19.842],[72.977,18.295],[72.981,18.081],[73.235,17.302],[73.319,16.51],[73.447,16.069],[73.766,15.497],[73.886,15.435],[74.111,14.78],[74.263,14.702],[74.505,14.01],[74.615,13.836],[74.818,12.862],[75.131,12.208],[75.531,11.694],[75.833,11.098],[75.922,10.766],[76.178,10.171],[76.359,9.915],[76.312,9.493],[76.544,8.913],[76.996,8.368],[77.316,8.128],[77.511,8.076],[78.063,8.373],[78.178,8.861],[78.45,9.117],[78.957,9.275],[78.981,9.667],[79.279,10.036],[79.398,10.325],[79.76,10.258],[79.864,10.379],[79.855,11.16],[79.752,11.577],[79.862,12.022],[80.156,12.475],[80.333,13.198],[80.327,13.43],[80.119,13.501],[80.237,13.84],[80.121,14.242],[80.197,14.565],[80.055,15.014],[80.091,15.305],[80.263,15.675],[80.69,15.901],[80.999,15.847],[81.155,15.986],[81.317,16.367],[81.763,16.323],[82.307,16.58],[82.299,17.03],[82.475,17.206],[83.239,17.593],[83.614,18.045],[84.077,18.272],[84.424,18.636],[84.872,19.22],[85.18,19.475],[85.221,19.736],[85.464,19.903],[85.549,19.691],[86.269,19.91],[86.734,20.462],[87.004,20.657],[86.844,21.082],[86.918,21.327],[87.201,21.552],[87.704,21.656],[87.97,21.836],[88.204,21.805],[88.393,21.6],[88.762,21.556],[88.882,21.672],[89.06,22.13],[88.843,22.965],[88.955,23.184],[88.686,23.293],[88.54,23.65],[88.738,24.287],[88.475,24.315],[88.022,24.646],[88.431,25.173],[88.899,25.169],[88.772,25.502],[88.53,25.5],[88.074,25.908],[88.164,26.14],[88.656,26.415],[88.808,26.233],[89.044,26.381],[89.132,26.134],[89.351,25.997],[89.603,26.055],[89.83,25.908],[89.795,25.374],[90.365,25.15],[91.236,25.202],[91.471,25.134],[92.002,25.183],[92.458,24.953],[92.234,24.778],[92.108,24.406],[91.597,24.105],[91.363,24.1],[91.141,23.612],[91.301,23.142],[91.537,22.982],[91.796,23.089],[91.744,23.272],[92.151,23.732],[92.357,23.289],[92.379,22.9],[92.496,22.696],[92.576,21.978],[92.854,22.024],[93.169,22.247],[93.08,22.773],[93.375,23.13],[93.457,23.96],[93.998,23.917],[94.19,23.995],[94.29,24.317],[94.709,25.026],[94.608,25.395],[95.009,25.737],[95.14,26.03],[95.046,26.248],[95.119,26.604],[95.393,26.692],[96.143,27.258],[96.759,27.342],[96.87,27.619],[97.223,27.9],[97.323,28.217],[97.116,28.367],[96.336,28.48],[96.598,28.71],[96.458,28.995],[96.142,29.368],[95.745,29.34],[95.225,29.059],[94.777,29.167],[94.63,29.319],[94.271,29.098],[94.25,28.933],[93.863,28.705],[93.446,28.672],[93.186,28.432],[92.655,28.106],[92.575,27.848],[92.24,27.865],[92.065,27.762],[91.628,27.853],[91.595,27.546],[91.975,27.472],[92.036,26.855],[91.521,26.798],[90.588,26.78],[90.383,26.892],[89.822,26.701],[88.955,26.913],[88.73,27.151],[88.892,27.316],[88.741,27.546],[88.854,27.844],[88.61,28.106],[88.118,27.861],[87.971,27.103],[88.169,26.744],[88.074,26.454],[87.326,26.353],[86.714,26.415],[86.284,26.612],[85.822,26.572],[85.599,26.854],[85.287,26.737],[84.802,27.014],[84.64,27.028],[84.577,27.329],[84.08,27.51],[83.834,27.434],[83.133,27.444],[82.752,27.495],[82.652,27.704],[82.402,27.677],[82.052,27.905],[81.856,27.851],[81.307,28.124],[81.146,28.372],[80.648,28.62],[80.35,28.62],[80.036,28.837],[80.279,29.268],[80.214,29.417],[80.369,29.758],[80.996,30.197],[80.723,30.392],[80.253,30.565],[79.834,30.962],[79.395,31.037],[79.238,31.33],[78.738,31.335],[78.819,31.607],[78.745,31.964],[78.458,32.23],[78.448,32.566],[78.63,32.578],[78.943,32.346],[79.443,32.535],[79.621,32.729],[79.414,32.972],[79.456,33.25],[79.098,33.288],[78.824,33.461],[78.73,34.079],[78.985,34.286],[78.607,34.546],[78.273,34.659],[78.001,35.269],[77.8,35.495]]],[[[93.053,13.284],[92.847,13.345],[92.718,12.362],[92.991,12.519],[92.964,12.865],[93.053,13.284]]]]},"properties":{"name":"India"}},
{"type":"Feature","geometry":{"type":"MultiPolygon","coordinates":[[[[77.8,35.495],[78.001,35.269],[78.273,34.659],[78.607,34.546],[78.985,34.286],[78.73,34.079],[78.824,33.461],[79.098,33.288],[79.456,33.25],[79.414,32.972],[79.621,32.729],[79.443,32.535],[78.943,32.346],[78.63,32.578],[78.448,32.566],[78.458,32.23],[78.745,31.964],[78.819,31.607],[78.738,31.335],[79.238,31.33],[79.395,31.037],[79.834,30.962],[80.253,30.565],[80.723,30.392],[80.996,30.197],[81.195,30.004],[81.592,30.414],[82.089,30.33],[82.145,30.069],[82.542,29.923],[82.837,29.66],[83.162,29.625],[83.517,29.192],[84.099,29.247],[84.235,28.9],[84.678,28.604],[84.919,28.536],[85.08,28.319],[85.675,28.306],[85.98,27.885],[86.203,28.003],[86.439,27.911],[86.662,28.107],[87.156,27.826],[88.118,27.861],[88.61,28.106],[88.854,27.844],[88.741,27.546],[88.892,27.316],[89.051,27.608],[89.561,28.135],[89.863,28.296],[90.262,28.335],[90.588,28.233],[90.684,28.087],[91.093,27.972],[91.27,28.073],[91.628,27.853],[92.065,27.762],[92.24,27.865],[92.575,27.848],[92.655,28.106],[93.186,28.432],[93.446,28.672],[93.863,28.705],[94.25,28.933],[94.271,29.098],[94.63,29.319],[94.777,29.167],[95.225,29.059],[95.745,29.34],[96.142,29.368],[96.458,28.995],[96.598,28.71],[96.336,28.48],[97.116,28.367],[97.323,28.217],[97.528,28.53],[97.7,28.488],[98.119,28.141],[98.107,27.973],[98.4,27.676],[98.679,27.577],[98.673,27.176],[98.749,26.771],[98.692,25.879],[98.461,25.795],[98.333,25.567],[97.738,25.091],[97.536,24.745],[97.708,24.125],[97.89,24.023],[98.503,24.121],[98.857,23.604],[98.911,23.298],[99.217,23.057],[99.535,22.949],[99.308,22.72],[99.358,22.495],[99.166,22.205],[99.942,22.046],[99.95,21.721],[100.327,21.524],[100.622,21.469],[101.069,21.762],[101.159,21.553],[101.275,21.174],[101.723,21.304],[101.752,21.806],[101.518,22.228],[101.655,22.446],[102.119,22.398],[102.443,22.765],[102.845,22.585],[102.989,22.438],[103.31,22.788],[103.473,22.592],[103.647,22.799],[103.867,22.575],[104.213,22.825],[104.34,22.686],[104.728,22.839],[104.798,23.086],[105.332,23.318],[105.854,22.905],[105.999,22.975],[106.316,22.854],[106.667,22.868],[106.736,22.695],[106.527,22.428],[106.722,22.007],[107.021,21.892],[107.348,21.599],[107.745,21.658],[107.991,21.486],[108.448,21.658],[109.136,21.603],[109.215,21.417],[109.918,21.489],[109.67,21.123],[109.746,20.63],[110.128,20.248],[110.4,20.301],[110.534,20.478],[110.157,20.849],[110.157,20.986],[111.206,21.532],[111.63,21.53],[111.992,21.764],[112.245,21.707],[112.608,21.775],[112.826,21.966],[113.231,22.043],[113.588,22.238],[113.599,22.575],[113.368,22.881],[113.612,22.995],[113.89,22.453],[114.396,22.614],[114.717,22.791],[114.866,22.602],[115.065,22.796],[115.374,22.694],[115.584,22.88],[115.81,22.808],[116.495,22.939],[116.918,23.638],[117.078,23.565],[117.894,24.028],[118.131,24.62],[118.571,24.569],[119.11,25.407],[119.558,25.564],[119.566,26.05],[119.674,26.281],[119.675,26.619],[120.08,26.646],[120.237,26.927],[120.518,27.202],[120.546,27.403],[120.835,27.956],[121.237,28.306],[121.656,28.339],[121.51,28.657],[121.841,29.161],[121.983,29.823],[121.678,30.001],[121.377,30.325],[120.734,30.232],[120.978,30.543],[121.411,30.767],[121.977,30.915],[121.725,31.282],[121.32,31.505],[121.115,31.796],[121.286,31.891],[121.676,31.724],[121.822,31.952],[121.443,32.114],[121.354,32.415],[120.911,32.63],[120.896,33.014],[120.73,33.205],[120.407,33.86],[120.257,34.312],[119.641,34.551],[119.347,34.781],[119.207,35.048],[119.648,35.584],[120.243,35.974],[120.105,36.201],[120.697,36.144],[120.751,36.459],[122.04,36.985],[122.32,36.823],[122.525,36.944],[122.549,37.311],[122.13,37.483],[121.477,37.468],[121.138,37.701],[120.738,37.834],[120.463,37.748],[119.859,37.36],[119.771,37.152],[119.441,37.121],[118.972,37.281],[118.977,37.611],[119.243,37.769],[118.84,38.153],[118.543,38.068],[118.085,38.139],[117.716,38.379],[117.566,38.613],[117.718,39.093],[118.045,39.219],[118.344,39.031],[118.619,39.161],[118.94,39.139],[119.305,39.433],[119.34,39.716],[119.536,39.891],[120.436,40.194],[120.991,40.831],[121.361,40.94],[122.049,40.746],[122.302,40.502],[121.774,39.921],[121.536,39.862],[121.436,39.509],[121.674,39.088],[121.09,38.899],[121.153,38.728],[121.655,38.858],[122.127,39.142],[122.396,39.411],[123.009,39.68],[123.623,39.872],[123.986,39.81],[124.896,40.484],[125.364,40.647],[125.761,40.886],[126.008,40.899],[126.501,41.434],[126.618,41.666],[126.887,41.785],[127.269,41.505],[128.186,41.404],[128.303,41.583],[128.035,41.994],[128.502,41.996],[128.964,42.089],[129.243,42.379],[129.703,42.442],[129.88,42.996],[130.239,42.902],[130.407,42.735],[130.992,42.849],[131.281,43.38],[131.17,43.781],[131.264,44.054],[131.066,44.682],[130.933,44.842],[131.42,44.959],[131.818,45.333],[131.97,45.234],[132.953,45.024],[133.115,45.123],[133.202,45.511],[133.413,45.573],[133.687,46.142],[133.902,46.259],[134.154,47.258],[134.485,47.43],[134.773,47.711],[134.567,48.04],[134.701,48.262],[134.386,48.381],[133.721,48.245],[133.464,48.09],[133.092,48.107],[132.525,47.708],[131.023,47.682],[130.663,48.116],[130.819,48.282],[130.533,48.636],[129.913,49.04],[129.711,49.274],[129.051,49.377],[128.666,49.609],[128.092,49.542],[127.508,49.822],[127.578,50.221],[127.331,50.328],[127.287,50.751],[126.932,51.064],[126.955,51.33],[126.446,51.983],[126.531,52.153],[126.035,52.727],[125.621,53.062],[125.127,53.207],[124.72,53.149],[124.233,53.382],[123.64,53.551],[122.86,53.474],[122.338,53.491],[121.203,53.277],[120.874,53.28],[120.28,52.866],[120.779,52.118],[120.648,51.911],[120.108,51.665],[119.748,51.083],[119.294,50.599],[119.316,50.093],[118.644,49.955],[117.759,49.513],[117.058,49.673],[116.684,49.823],[115.8,48.53],[115.809,48.274],[115.515,48.122],[115.853,47.706],[116.244,47.863],[116.853,47.872],[117.317,47.654],[117.742,47.978],[118.182,48.028],[118.542,47.966],[118.767,47.756],[119.7,47.16],[119.903,46.842],[119.68,46.592],[119.317,46.612],[118.816,46.758],[118.238,46.715],[117.696,46.512],[117.394,46.571],[117.302,46.35],[116.604,46.309],[116.012,45.679],[115.638,45.444],[114.534,45.386],[114.055,44.941],[113.635,44.746],[112.614,44.909],[112.441,45.052],[112.011,45.087],[111.739,44.966],[111.406,44.416],[111.519,44.189],[111.839,43.939],[111.933,43.697],[110.934,43.288],[110.407,42.769],[109.485,42.449],[108.797,42.398],[108.177,42.454],[106.768,42.287],[105.869,41.993],[105.015,41.596],[104.498,41.666],[104.501,41.871],[103.721,41.756],[103.073,42.005],[102.034,42.185],[101.638,42.515],[101.219,42.53],[100.017,42.677],[99.474,42.564],[97.193,42.787],[96.351,42.741],[96.294,42.933],[95.908,43.215],[95.379,44.287],[94.698,44.343],[93.975,44.66],[93.525,44.951],[92.753,45.038],[92.475,44.997],[91.663,45.06],[90.905,45.186],[90.651,45.493],[90.711,45.752],[91.002,46.022],[90.896,46.302],[91.047,46.566],[90.828,46.982],[90.469,47.309],[90.441,47.493],[90.083,47.756],[89.751,47.824],[89.542,48.031],[89.046,47.993],[88.581,48.212],[88.565,48.343],[87.943,48.599],[87.806,48.801],[87.816,49.166],[87.4,49.071],[86.887,49.107],[86.745,48.704],[86.565,48.527],[85.784,48.408],[85.515,47.92],[85.67,47.384],[85.499,47.052],[85.205,47.034],[84.916,46.851],[84.664,46.984],[83.905,46.974],[83.15,47.212],[82.839,46.732],[82.291,45.533],[82.616,45.435],[82.585,45.177],[81.95,45.144],[81.739,45.338],[80.854,45.126],[80.062,45.019],[80.376,44.671],[80.345,44.103],[80.713,43.459],[80.773,43.113],[80.368,43.028],[80.14,42.623],[80.268,42.238],[80.182,42.021],[79.304,41.788],[78.36,41.378],[78.075,41.04],[77.475,40.982],[76.861,41.013],[76.449,40.416],[76.244,40.441],[75.682,40.292],[75.56,40.633],[75.194,40.441],[74.835,40.512],[74.37,40.106],[74.004,40.061],[73.823,39.806],[73.927,39.593],[73.633,39.448],[73.602,39.236],[73.816,38.994],[73.684,38.855],[73.797,38.603],[74.334,38.667],[74.776,38.511],[74.791,38.081],[74.965,37.767],[74.892,37.599],[75.164,37.401],[74.783,37.22],[74.91,36.963],[75.351,36.916],[75.411,36.747],[75.791,36.688],[75.977,36.463],[75.894,36.097],[76.166,35.806],[76.571,35.751],[76.896,35.59],[77.413,35.469],[77.8,35.495]]],[[[111.011,19.684],[110.935,19.995],[110.64,20.108],[110.09,19.978],[109.719,20.011],[109.304,19.922],[109.157,19.65],[108.632,19.286],[108.695,18.505],[109.001,18.367],[109.44,18.289],[109.746,18.396],[110.053,18.39],[110.103,18.539],[110.427,18.681],[110.698,19.417],[111.011,19.684]]]]},"properties":{"name":"China"}},
{"type":"Feature","geometry":{"type":"Polygon","coordinates":[[[107.52,14.705],[107.32,14.12],[107.597,13.535],[107.46,13.022],[107.565,12.606],[107.514,12.344],[107.153,12.277],[106.702,11.971],[106.394,11.97],[106.287,11.675],[106.015,11.77],[105.853,11.547],[105.843,11.304],[106.063,11.093],[106.155,10.785],[105.861,10.839],[105.753,11.016],[105.066,10.746],[104.854,10.531],[104.451,10.42],[105.088,9.997],[104.893,9.851],[104.775,8.818],[104.856,8.566],[105.101,8.634],[105.539,9.129],[106.193,9.369],[106.197,9.541],[106.576,9.649],[106.788,10.393],[107.326,10.442],[107.882,10.717],[108.106,10.918],[108.345,10.954],[108.577,11.179],[109.018,11.356],[109.243,11.736],[109.199,11.948],[109.205,12.646],[109.465,12.913],[109.232,13.393],[109.304,13.759],[109.081,14.729],[108.943,14.98],[108.883,15.336],[108.704,15.445],[108.151,16.217],[107.759,16.463],[107.216,16.908],[107.112,17.088],[106.764,17.336],[106.47,17.748],[106.525,17.95],[106.098,18.29],[105.648,18.893],[105.811,19.6],[105.956,19.925],[106.57,20.232],[106.568,20.525],[106.755,20.939],[107.334,21.006],[107.392,21.28],[107.991,21.486],[107.745,21.658],[107.348,21.599],[107.021,21.892],[106.722,22.007],[106.527,22.428],[106.736,22.695],[106.667,22.868],[106.316,22.854],[105.999,22.975],[105.854,22.905],[105.332,23.318],[104.798,23.086],[104.728,22.839],[104.34,22.686],[104.213,22.825],[103.867,22.575],[103.647,22.799],[103.473,22.592],[103.31,22.788],[102.989,22.438],[102.845,22.585],[102.443,22.765],[102.119,22.398],[102.591,21.901],[102.651,21.658],[102.948,21.737],[102.888,21.227],[103.115,20.868],[103.427,20.821],[103.665,20.658],[103.776,20.835],[104.057,20.959],[104.601,20.661],[104.543,20.536],[104.908,20.175],[104.805,19.791],[104.506,19.603],[104.229,19.706],[103.857,19.317],[104.148,19.183],[104.722,18.792],[105.113,18.698],[105.157,18.32],[105.476,18.127],[105.735,17.664],[106.42,16.989],[106.655,16.471],[107.117,16.255],[107.391,15.936],[107.16,15.759],[107.369,15.496],[107.658,15.282],[107.52,14.705]]]},"properties":{"name":"Vietnam"}},
{"type":"Feature","geometry":{"type":"Polygon","coordinates":[[[107.52,14.705],[107.415,14.543],[106.946,14.324],[106.793,14.323],[106.512,14.59],[105.969,14.332],[106.145,14.072],[105.873,13.937],[105.533,14.164],[105.348,14.106],[105.184,14.346],[104.772,14.44],[104.462,14.357],[103.87,14.343],[103.55,14.422],[103.085,14.296],[102.513,13.567],[102.332,13.565],[102.328,13.275],[102.473,13.006],[102.559,12.631],[102.765,12.416],[102.7,12.139],[102.914,11.766],[102.914,11.646],[103.115,11.458],[103.096,10.934],[103.402,10.884],[103.66,11.03],[103.624,10.501],[103.854,10.586],[104.286,10.54],[104.451,10.42],[104.854,10.531],[105.066,10.746],[105.753,11.016],[105.861,10.839],[106.155,10.785],[106.063,11.093],[105.843,11.304],[105.853,11.547],[106.015,11.77],[106.287,11.675],[106.394,11.97],[106.702,11.971],[107.153,12.277],[107.514,12.344],[107.565,12.606],[107.46,13.022],[107.597,13.535],[107.32,14.12],[107.52,14.705]]]},"properties":{"name":"Cambodia"}},
{"type":"Feature","geometry":{"type":"Polygon","coordinates":[[[102.119,22.398],[101.655,22.446],[101.518,22.228],[101.752,21.806],[101.723,21.304],[101.275,21.174],[101.159,21.553],[100.725,21.312],[100.516,20.886],[100.211,20.697],[100.099,20.318],[100.364,20.369],[100.543,20.067],[100.384,19.764],[100.462,19.537],[100.746,19.485],[100.875,19.613],[101.193,19.453],[101.24,18.674],[101.03,18.428],[101.165,18.053],[101.008,17.895],[100.902,17.562],[101.132,17.462],[101.578,17.868],[102.079,18.214],[102.596,17.85],[103.038,17.991],[103.261,18.4],[103.397,18.441],[104,18.318],[104.481,17.64],[104.816,17.373],[104.745,17.025],[104.755,16.529],[105.042,16.141],[105.405,16.019],[105.448,15.765],[105.651,15.635],[105.564,15.273],[105.584,14.978],[105.416,14.428],[105.184,14.346],[105.348,14.106],[105.533,14.164],[105.873,13.937],[106.145,14.072],[105.969,14.332],[106.512,14.59],[106.793,14.323],[106.946,14.324],[107.415,14.543],[107.52,14.705],[107.658,15.282],[107.369,15.496],[107.16,15.759],[107.391,15.936],[107.117,16.255],[106.655,16.471],[106.42,16.989],[105.735,17.664],[105.476,18.127],[105.157,18.32],[105.113,18.698],[104.722,18.792],[104.148,19.183],[103.857,19.317],[104.229,19.706],[104.506,19.603],[104.805,19.791],[104.908,20.175],[104.543,20.536],[104.601,20.661],[104.057,20.959],[103.776,20.835],[103.665,20.658],[103.427,20.821],[103.115,20.868],[102.888,21.227],[102.948,21.737],[102.651,21.658],[102.591,21.901],[102.119,22.398]]]},"properties":{"name":"Laos"}},
{"type":"Feature","geometry":{"type":"Polygon","coordinates":[[[102.914,11.646],[102.914,11.766],[102.7,12.139],[102.765,12.416],[102.559,12.631],[102.473,13.006],[102.328,13.275],[102.332,13.565],[102.513,13.567],[103.085,14.296],[103.55,14.422],[103.87,14.343],[104.462,14.357],[104.772,14.44],[105.184,14.346],[105.416,14.428],[105.584,14.978],[105.564,15.273],[105.651,15.635],[105.448,15.765],[105.405,16.019],[105.042,16.141],[104.755,16.529],[104.745,17.025],[104.816,17.373],[104.481,17.64],[104,18.318],[103.397,18.441],[103.261,18.4],[103.038,17.991],[102.596,17.85],[102.079,18.214],[101.578,17.868],[101.132,17.462],[100.902,17.562],[101.008,17.895],[101.165,18.053],[101.03,18.428],[101.24,18.674],[101.193,19.453],[100.875,19.613],[100.746,19.485],[100.462,19.537],[100.384,19.764],[100.543,20.067],[100.364,20.369],[100.099,20.318],[99.942,20.444],[99.296,20.062],[99.017,20.041],[99.009,19.846],[98.533,19.676],[98.218,19.708],[97.84,19.555],[97.811,19.112],[97.719,18.865],[97.752,18.582],[97.438,18.488],[97.754,17.969],[97.769,17.679],[97.983,17.505],[98.313,17.052],[98.632,16.463],[98.659,16.116],[98.543,15.735],[98.56,15.355],[98.283,15.29],[98.165,15.126],[98.243,14.805],[98.548,14.378],[98.945,14.069],[99.153,13.715],[99.19,13.23],[99.102,13.171],[99.214,12.735],[99.394,12.59],[99.466,12.126],[99.63,11.816],[99.243,11.198],[98.767,10.689],[98.747,10.351],[98.327,9.204],[98.382,9.072],[98.224,8.735],[98.278,8.241],[98.599,8.375],[99.293,7.621],[99.366,7.336],[99.693,7.116],[99.797,6.822],[100.127,6.442],[100.387,6.522],[100.806,6.415],[101.082,6.246],[101.105,5.638],[101.535,5.906],[101.8,5.74],[102.06,6.095],[102.073,6.258],[101.772,6.501],[101.566,6.832],[101.385,6.905],[100.998,6.857],[100.611,7.193],[100.396,7.211],[100.185,7.514],[100.323,7.616],[100.22,8.449],[99.959,8.638],[99.854,9.295],[99.475,9.201],[99.181,9.643],[99.152,10.357],[99.512,10.902],[99.494,11.115],[99.855,11.968],[100.02,12.193],[99.961,12.625],[100.104,13.057],[99.967,13.259],[100.29,13.505],[100.951,13.468],[100.837,12.708],[101.443,12.625],[101.83,12.673],[102.072,12.489],[102.296,12.19],[102.75,12.04],[102.914,11.646]]]},"properties":{"name":"Thailand"}},
{"type":"Feature","geometry":{"type":"Polygon","coordinates":[[[124.92,-8.962],[125.062,-9.486],[125.609,-9.186],[126.43,-8.955],[126.583,-8.806],[127.009,-8.677],[127.303,-8.432],[126.967,-8.309],[126.549,-8.487],[126.412,-8.419],[126.069,-8.522],[125.898,-8.481],[125.144,-8.631],[124.92,-8.962]]]},"properties":{"name":"Timor-Leste"}},
{"type":"Feature","geometry":{"type":"Polygon","coordinates":[[[114.982,4.889],[114.928,5.001],[114.529,4.694],[113.999,4.601],[114.246,4.481],[114.587,4.021],[114.767,4.132],[114.836,4.357],[114.752,4.739],[114.982,4.889]]]},"properties":{"name":"Brunei"}},
{"type":"Feature","geometry":{"type":"Polygon","coordinates":[[[92.576,21.978],[92.59,21.496],[92.184,21.317],[92.265,21.061],[92.381,20.7],[92.772,20.201],[93.148,19.994],[93.375,20.089],[93.987,19.387],[93.797,19.235],[93.75,18.97],[94.134,18.847],[94.481,18.094],[94.595,17.615],[94.573,17.311],[94.379,16.887],[94.215,16.158],[94.859,15.783],[95.396,15.716],[95.665,15.949],[95.756,16.145],[96.336,16.439],[96.616,16.518],[96.801,16.737],[97.069,17.251],[97.255,16.698],[97.548,16.538],[97.65,16.284],[97.582,16.009],[97.727,15.843],[97.795,15.408],[97.795,14.88],[98.109,14.133],[98.103,13.701],[98.432,13.479],[98.691,12.71],[98.552,12.28],[98.72,11.964],[98.712,10.924],[98.459,10.715],[98.59,10.042],[98.747,10.351],[98.767,10.689],[99.243,11.198],[99.63,11.816],[99.466,12.126],[99.394,12.59],[99.214,12.735],[99.102,13.171],[99.19,13.23],[99.153,13.715],[98.945,14.069],[98.548,14.378],[98.243,14.805],[98.165,15.126],[98.283,15.29],[98.56,15.355],[98.543,15.735],[98.659,16.116],[98.632,16.463],[98.313,17.052],[97.983,17.505],[97.769,17.679],[97.754,17.969],[97.438,18.488],[97.752,18.582],[97.719,18.865],[97.811,19.112],[97.84,19.555],[98.218,19.708],[98.533,19.676],[99.009,19.846],[99.017,20.041],[99.296,20.062],[99.942,20.444],[100.099,20.318],[100.211,20.697],[100.516,20.886],[100.725,21.312],[101.159,21.553],[101.069,21.762],[100.622,21.469],[100.327,21.524],[99.95,21.721],[99.942,22.046],[99.166,22.205],[99.358,22.495],[99.308,22.72],[99.535,22.949],[99.217,23.057],[98.911,23.298],[98.857,23.604],[98.503,24.121],[97.89,24.023],[97.708,24.125],[97.536,24.745],[97.738,25.091],[98.333,25.567],[98.461,25.795],[98.692,25.879],[98.749,26.771],[98.673,27.176],[98.679,27.577],[98.4,27.676],[98.107,27.973],[98.119,28.141],[97.7,28.488],[97.528,28.53],[97.323,28.217],[97.223,27.9],[96.87,27.619],[96.759,27.342],[96.143,27.258],[95.393,26.692],[95.119,26.604],[95.046,26.248],[95.14,26.03],[95.009,25.737],[94.608,25.395],[94.709,25.026],[94.29,24.317],[94.19,23.995],[93.998,23.917],[93.457,23.96],[93.375,23.13],[93.08,22.773],[93.169,22.247],[92.854,22.024],[92.576,21.978]]]},"properties":{"name":"Myanmar"}},
{"type":"Feature","geometry":{"type":"Polygon","coordinates":[[[92.576,21.978],[92.496,22.696],[92.379,22.9],[92.357,23.289],[92.151,23.732],[91.744,23.272],[91.796,23.089],[91.537,22.982],[91.301,23.142],[91.141,23.612],[91.363,24.1],[91.597,24.105],[92.108,24.406],[92.234,24.778],[92.458,24.953],[92.002,25.183],[91.471,25.134],[91.236,25.202],[90.365,25.15],[89.795,25.374],[89.83,25.908],[89.603,26.055],[89.351,25.997],[89.132,26.134],[89.044,26.381],[88.808,26.233],[88.656,26.415],[88.164,26.14],[88.074,25.908],[88.53,25.5],[88.772,25.502],[88.899,25.169],[88.431,25.173],[88.022,24.646],[88.475,24.315],[88.738,24.287],[88.54,23.65],[88.686,23.293],[88.955,23.184],[88.843,22.965],[89.06,22.13],[89.105,21.816],[89.466,21.781],[90.024,21.862],[90.185,21.801],[90.613,22.315],[90.406,22.763],[90.627,23.087],[90.955,22.576],[91.203,22.543],[91.456,22.785],[91.676,22.535],[92.022,21.599],[92.053,21.155],[92.265,21.061],[92.184,21.317],[92.59,21.496],[92.576,21.978]]]},"properties":{"name":"Bangladesh"}},
{"type":"Feature","geometry":{"type":"MultiPolygon","coordinates":[[[[140.974,-2.601],[140.976,-4.596],[140.977,-6.335],[140.849,-6.703],[140.977,-6.897],[140.977,-9.106],[141.115,-9.218],[141.422,-9.15],[141.868,-9.22],[142.223,-9.161],[142.653,-9.33],[143.406,-8.962],[143.4,-8.782],[142.98,-8.336],[143.592,-8.242],[143.548,-8.032],[143.957,-7.972],[143.924,-7.694],[144.215,-7.796],[144.431,-7.612],[144.699,-7.617],[144.88,-7.782],[145.613,-7.933],[146.103,-8.1],[146.277,-8.435],[146.576,-8.822],[146.627,-9.023],[146.915,-9.124],[147.053,-9.46],[147.31,-9.539],[147.518,-9.879],[147.762,-10.06],[148.231,-10.106],[149.461,-10.352],[149.748,-10.338],[150.067,-10.64],[150.416,-10.682],[150.693,-10.557],[150.197,-10.095],[149.939,-10.062],[149.731,-9.809],[149.183,-9.368],[149.244,-8.997],[148.758,-9.104],[148.559,-9.032],[148.437,-8.666],[148.238,-8.569],[148.114,-8.055],[147.683,-7.811],[147.162,-7.391],[146.956,-6.955],[146.977,-6.74],[147.854,-6.691],[147.827,-6.335],[147.449,-5.962],[147.042,-5.939],[146.461,-5.599],[145.727,-5.422],[145.812,-4.861],[145.346,-4.39],[145.051,-4.342],[144.868,-4.099],[144.551,-3.968],[144.513,-3.818],[143.996,-3.793],[143.478,-3.421],[143.029,-3.356],[142.182,-3.08],[141.276,-2.642],[140.974,-2.601]]],[[[150.801,-9.652],[150.888,-9.521],[150.506,-9.338],[150.549,-9.623],[150.801,-9.652]]],[[[155.933,-6.641],[155.714,-6.279],[155.452,-6.137],[155.069,-5.552],[154.77,-5.559],[154.756,-5.948],[155.235,-6.363],[155.187,-6.554],[155.361,-6.746],[155.718,-6.873],[155.933,-6.641]]],[[[152.418,-4.345],[151.965,-4.331],[151.54,-4.177],[151.696,-4.819],[151.388,-4.914],[151.083,-5.164],[151.022,-5.39],[150.719,-5.534],[150.423,-5.457],[150.142,-5.534],[149.39,-5.587],[148.978,-5.465],[148.833,-5.534],[148.43,-5.445],[148.386,-5.775],[148.772,-5.873],[149.142,-6.144],[149.464,-6.103],[149.629,-6.299],[150.465,-6.274],[150.588,-6.178],[151.209,-5.943],[151.465,-5.685],[152.099,-5.456],[151.993,-4.972],[152.292,-4.935],[152.412,-4.684],[152.418,-4.345]]],[[[153.137,-4.269],[152.956,-3.999],[152.575,-3.818],[152.493,-3.643],[152.053,-3.247],[151.809,-3.361],[152.289,-3.57],[152.688,-4.164],[152.671,-4.452],[152.874,-4.789],[153.075,-4.602],[153.137,-4.269]]],[[[150.465,-2.532],[150.208,-2.375],[150.187,-2.679],[150.465,-2.532]]],[[[147.433,-1.984],[146.652,-1.964],[146.648,-2.169],[147.216,-2.183],[147.433,-1.984]]]]},"properties":{"name":"Papua New Guinea"}},
{"type":"Feature","geometry":{"type":"MultiPolygon","coordinates":[[[[131.536,-31.606],[132.234,-32.033],[132.798,-31.956],[133.148,-32.197],[133.586,-32.103],[134.273,-32.588],[134.074,-32.714],[134.279,-33.163],[134.662,-33.226],[134.814,-33.353],[134.85,-33.638],[135.19,-33.893],[135.346,-34.276],[135.43,-34.713],[135.741,-34.861],[135.937,-34.535],[136.125,-34.453],[136.369,-34.073],[136.607,-33.903],[137.225,-33.653],[137.452,-33.14],[137.902,-32.788],[138.044,-33.125],[137.81,-33.26],[137.937,-33.528],[137.602,-33.877],[137.454,-34.164],[137.513,-34.618],[137.446,-34.917],[137.031,-34.9],[136.953,-35.284],[137.403,-35.124],[137.671,-35.181],[138.038,-34.308],[138.536,-34.741],[138.427,-35.353],[138.123,-35.555],[138.531,-35.646],[138.961,-35.414],[139.041,-35.604],[139.475,-35.896],[139.854,-36.622],[139.672,-36.953],[139.742,-37.181],[140.114,-37.518],[140.36,-37.882],[140.714,-38.071],[141.134,-38.128],[141.434,-38.375],[141.947,-38.283],[142.398,-38.367],[143.537,-38.858],[144.402,-38.301],[144.523,-38.084],[144.983,-37.899],[145.297,-38.232],[145.571,-38.662],[145.809,-38.65],[145.916,-38.896],[146.256,-38.702],[146.879,-38.644],[147.589,-38.081],[148.306,-37.823],[149.479,-37.786],[149.985,-37.496],[150.02,-37.221],[149.904,-36.928],[150.142,-36.32],[150.163,-35.957],[150.554,-35.214],[150.834,-34.782],[150.925,-34.33],[151.169,-34.11],[151.671,-33.061],[151.834,-32.865],[152.189,-32.759],[152.522,-32.427],[152.51,-32.162],[152.935,-31.483],[153.088,-30.927],[152.988,-30.735],[153.322,-29.698],[153.34,-29.323],[153.606,-28.867],[153.591,-28.268],[153.449,-28.073],[153.446,-27.81],[153.114,-27.242],[153.206,-27.046],[153.077,-26.281],[153.122,-25.934],[152.894,-25.688],[152.914,-25.288],[152.677,-25.242],[152.405,-24.749],[152.15,-24.619],[151.78,-24.023],[151.581,-24.058],[150.857,-23.52],[150.764,-23.159],[150.826,-22.698],[150.758,-22.482],[150.513,-22.535],[150.216,-22.395],[150.054,-22.142],[149.831,-22.389],[149.609,-22.244],[149.478,-21.718],[149.231,-21.09],[148.74,-20.719],[148.851,-20.421],[148.567,-20.06],[147.859,-19.825],[147.684,-19.828],[147.55,-19.521],[147.167,-19.4],[146.447,-19.06],[146.277,-18.874],[146.339,-18.527],[146.024,-18.263],[146.098,-17.931],[146.071,-17.392],[145.778,-16.885],[145.4,-16.443],[145.462,-16.06],[145.274,-15.536],[145.277,-14.947],[144.678,-14.556],[144.515,-14.173],[143.952,-14.499],[143.783,-14.402],[143.687,-14.014],[143.534,-13.766],[143.527,-13.33],[143.434,-12.613],[143.077,-12.329],[143.204,-11.983],[142.873,-11.851],[142.742,-10.975],[142.449,-10.715],[142.175,-10.93],[142.132,-11.338],[141.948,-11.896],[141.801,-12.055],[141.666,-12.441],[141.811,-12.584],[141.585,-12.977],[141.691,-13.26],[141.474,-13.776],[141.584,-14.076],[141.522,-14.484],[141.666,-15.011],[141.487,-15.479],[141.425,-16.082],[141.199,-16.703],[140.947,-17.018],[140.833,-17.451],[140.507,-17.636],[140,-17.706],[139.274,-17.348],[139.037,-16.916],[138.657,-16.78],[138.184,-16.697],[137.746,-16.252],[137.361,-16.122],[137.046,-15.922],[136.768,-15.901],[136.268,-15.545],[136.24,-15.424],[135.47,-14.948],[135.391,-14.74],[135.903,-14.136],[136.005,-13.798],[135.845,-13.6],[135.883,-13.326],[136.308,-13.163],[136.451,-13.216],[136.637,-12.955],[136.691,-12.283],[136.451,-11.942],[136.026,-12.311],[135.739,-11.942],[135.07,-12.26],[134.861,-12.127],[134.382,-12.043],[134.132,-11.886],[133.943,-11.914],[133.803,-11.715],[133.622,-11.833],[133.141,-11.675],[132.911,-11.332],[132.674,-11.508],[132.35,-11.146],[132.188,-11.351],[132.014,-11.14],[131.856,-11.303],[132.085,-11.518],[132.37,-11.435],[132.595,-11.622],[132.627,-12.044],[132.046,-12.307],[131.905,-12.22],[131.493,-12.298],[131.328,-12.185],[131,-12.171],[130.784,-12.435],[130.345,-12.695],[130.13,-12.941],[130.119,-13.156],[130.273,-13.319],[129.969,-13.53],[129.718,-14.016],[129.496,-14.089],[129.358,-14.409],[129.724,-14.791],[129.612,-14.943],[129.051,-14.88],[128.532,-14.753],[128.196,-15.057],[128.175,-14.698],[127.906,-14.497],[127.666,-14.178],[127.322,-13.917],[127.107,-13.953],[126.953,-13.724],[126.569,-14.195],[126.39,-14.005],[126.141,-14.195],[126.041,-14.509],[125.658,-14.36],[125.144,-14.728],[125.355,-14.994],[124.842,-15.141],[124.63,-15.505],[124.403,-15.559],[124.404,-15.875],[124.59,-16.094],[124.378,-16.215],[123.835,-16.368],[123.652,-16.36],[123.566,-16.616],[123.693,-16.73],[123.837,-17.132],[123.4,-17.329],[123.151,-16.808],[122.886,-16.512],[122.704,-16.787],[122.276,-17.089],[122.143,-17.564],[122.22,-18.197],[121.91,-18.464],[121.519,-19.07],[121.194,-19.472],[120.954,-19.634],[120.238,-19.907],[119.567,-20.069],[119.069,-19.983],[118.832,-20.262],[118.136,-20.362],[117.839,-20.617],[117.354,-20.728],[117.063,-20.622],[116.743,-20.617],[115.937,-21.059],[115.455,-21.514],[114.647,-21.843],[114.392,-22.358],[114.171,-22.317],[114.011,-21.86],[113.647,-22.578],[113.812,-23.051],[113.738,-23.527],[113.46,-23.91],[113.385,-24.249],[113.611,-24.893],[114.155,-25.79],[114.259,-25.842],[114.104,-26.448],[113.591,-26.676],[114.013,-27.315],[114.144,-27.688],[114.166,-28.107],[114.531,-28.522],[114.577,-28.785],[114.832,-29.092],[114.979,-29.48],[114.975,-30.214],[115.181,-30.827],[115.68,-31.649],[115.744,-31.928],[115.769,-32.602],[115.601,-32.662],[115.667,-33.288],[115.434,-33.595],[114.957,-33.682],[115.018,-34.262],[115.335,-34.314],[115.745,-34.54],[116.02,-34.829],[116.465,-35.001],[117.36,-35.024],[117.539,-35.092],[118.12,-34.987],[118.932,-34.446],[119.382,-34.44],[119.572,-34.142],[120.002,-33.926],[120.423,-33.97],[120.572,-33.892],[121.533,-33.82],[122.016,-33.825],[122.56,-33.959],[122.788,-33.881],[123.567,-33.884],[123.952,-33.567],[124.117,-33.122],[124.357,-32.953],[124.709,-32.904],[125,-32.737],[125.537,-32.548],[125.87,-32.333],[126.186,-32.233],[126.678,-32.317],[127.289,-32.273],[128.017,-32.084],[128.99,-31.691],[130.157,-31.574],[130.834,-31.602],[131.178,-31.478],[131.536,-31.606]]],[[[147.999,-43.23],[147.889,-42.82],[147.983,-42.319],[148.261,-41.8],[148.331,-41.002],[147.984,-40.737],[147.445,-41.008],[147.018,-40.977],[146.424,-41.166],[145.791,-41.017],[145.712,-40.93],[144.689,-40.705],[144.606,-40.997],[144.926,-41.709],[145.207,-41.967],[145.264,-42.595],[146.031,-43.483],[146.711,-43.629],[147.258,-43.254],[147.36,-42.925],[147.586,-42.821],[147.792,-43.244],[147.999,-43.23]]],[[[148.015,-40.151],[148.299,-39.962],[147.854,-39.828],[148.015,-40.151]]],[[[138.13,-35.816],[137.581,-35.727],[137.352,-35.586],[136.621,-35.751],[136.716,-36.063],[137.212,-35.98],[137.459,-36.083],[137.757,-35.872],[138.13,-35.816]]],[[[153.37,-24.989],[153.038,-25.184],[152.948,-25.552],[153.084,-25.666],[153.37,-24.989]]],[[[139.734,-16.443],[139.288,-16.471],[139.445,-16.665],[139.734,-16.443]]],[[[136.952,-14.182],[136.717,-14.064],[136.684,-13.72],[136.43,-13.877],[136.461,-14.216],[136.903,-14.299],[136.952,-14.182]]],[[[130.537,-11.705],[130.397,-11.535],[130.35,-11.339],[130.147,-11.489],[130.202,-11.653],[130.537,-11.705]]],[[[131.537,-11.413],[131.274,-11.19],[131.01,-11.355],[130.692,-11.423],[130.366,-11.232],[130.497,-11.65],[130.98,-11.926],[131.432,-11.607],[131.537,-11.413]]]]},"properties":{"name":"Australia"}},
{"type":"Feature","geometry":{"type":"MultiPolygon","coordinates":[[[[126.569,7.301],[126.583,7.719],[126.406,7.833],[126.463,8.23],[126.3,8.768],[126.313,8.956],[125.934,9.492],[125.399,9.681],[125.542,9.189],[125.462,8.985],[124.781,8.949],[124.753,8.5],[124.406,8.608],[124.232,8.213],[123.874,8.105],[123.759,8.607],[123.478,8.695],[123.331,8.547],[123.055,8.505],[122.925,8.15],[122.292,8.01],[122.129,7.815],[122.047,7.301],[121.899,7.057],[122.154,6.928],[122.444,7.609],[122.597,7.761],[122.815,7.743],[122.996,7.467],[123.486,7.664],[123.587,7.839],[124.065,7.603],[124.247,7.404],[124.029,7.115],[123.966,6.821],[124.055,6.438],[124.246,6.187],[124.596,5.999],[125.181,5.798],[125.388,5.574],[125.667,5.95],[125.707,6.15],[125.574,6.517],[125.389,6.768],[125.657,7.237],[125.807,7.351],[126.079,6.843],[126.476,7.066],[126.569,7.301]]],[[[122.297,18.404],[121.975,18.286],[121.613,18.359],[121.107,18.643],[120.611,18.539],[120.334,17.556],[120.442,17.368],[120.427,16.962],[120.276,16.612],[120.402,16.165],[120.185,16.033],[119.902,16.251],[119.879,15.915],[120.09,14.794],[120.539,14.703],[120.83,14.764],[120.97,14.502],[120.587,14.2],[120.746,13.934],[121.279,13.595],[121.485,13.852],[121.725,13.969],[122.118,13.752],[122.501,13.368],[122.516,13.934],[122.815,13.654],[123.169,13.449],[123.441,13.037],[123.819,12.832],[123.879,12.645],[124.095,12.557],[124.082,13.01],[123.75,13.155],[123.795,13.308],[123.528,13.627],[123.938,13.784],[123.478,13.951],[123.108,13.722],[123.012,14.106],[122.753,14.332],[122.471,14.346],[121.936,13.995],[121.732,14.188],[121.594,14.859],[121.379,15.308],[121.637,15.722],[121.578,15.932],[121.752,16.077],[122.204,16.264],[122.529,17.091],[122.251,17.36],[122.157,17.619],[122.18,18.121],[122.297,18.404]]],[[[122.297,6.633],[122.067,6.741],[121.839,6.669],[121.962,6.405],[122.189,6.451],[122.297,6.633]]],[[[124.565,9.871],[124.589,10.024],[124.185,10.144],[123.886,9.915],[123.938,9.617],[124.294,9.607],[124.565,9.871]]],[[[123.574,10.831],[123.214,10.996],[122.966,10.876],[122.824,10.533],[122.879,10.118],[122.395,9.837],[122.599,9.433],[122.869,9.323],[123.033,9.035],[123.23,9.108],[123.321,9.343],[123.198,9.487],[123.157,9.868],[123.574,10.831]]],[[[124.047,10.834],[123.849,10.753],[123.383,9.943],[123.488,9.566],[123.808,10.237],[124.04,10.484],[124.047,10.834]]],[[[119.672,10.553],[119.505,10.971],[119.278,10.508],[118.822,10.195],[118.531,9.774],[118.127,9.338],[117.656,9.058],[117.292,8.641],[117.774,8.703],[118.014,8.888],[118.132,9.127],[118.498,9.314],[118.725,9.631],[118.75,9.888],[119.196,10.056],[119.356,10.329],[119.672,10.553]]],[[[125.274,10.323],[125.194,10.603],[125.006,10.797],[125.053,10.968],[124.984,11.381],[124.404,11.303],[124.397,10.954],[124.622,11.002],[124.779,10.821],[124.739,10.395],[124.883,10.135],[125.274,10.323]]],[[[123.17,11.481],[122.901,11.438],[122.622,11.509],[122.388,11.727],[122.107,11.658],[122.045,11.017],[121.937,10.776],[122.04,10.467],[122.227,10.642],[122.59,10.699],[122.78,10.957],[123.015,11.092],[123.17,11.481]]],[[[120.348,12.029],[120.021,12.253],[119.984,12.026],[120.348,12.029]]],[[[125.713,11.149],[125.566,11.268],[125.471,11.603],[125.5,12.249],[125.166,12.578],[124.679,12.516],[124.276,12.533],[124.391,12.222],[124.68,12.03],[125,11.625],[125.003,11.42],[125.214,11.132],[125.713,11.149]]],[[[124.055,11.8],[123.882,12.213],[123.448,12.512],[123.273,12.424],[123.712,11.954],[124.055,11.8]]],[[[121.526,12.704],[121.431,13.224],[120.95,13.53],[120.565,13.513],[120.48,13.302],[120.758,13.002],[120.798,12.729],[121.132,12.242],[121.425,12.384],[121.526,12.704]]],[[[124.418,13.873],[124.125,14.049],[124.17,13.53],[124.418,13.873]]]]},"properties":{"name":"Philippines"}},
{"type":"Feature","geometry":{"type":"Polygon","coordinates":[[[103.961,1.391],[103.805,1.449],[103.648,1.308],[103.844,1.269],[103.961,1.391]]]},"properties":{"name":"Singapore"}}
]}